{
  "type": "FeatureCollection",
  "features": [
    {
      "type": "Feature",
      "properties": {
        "norad_id": 66918,
        "name": "HULIANWANG DIGUI 14D",
        "group": "last-30-days",
        "lat": 48.74110865078412,
        "lon": -161.96917990291263,
        "alt_km": 871.8358157634993,
        "timestamp": "2025-12-10T20:49:51.346324+00:00",
        "meta_object_name": "HULIANWANG DIGUI 14D",
        "meta_object_id": "2025-285D",
        "meta_epoch": "2025-12-10T15:20:17.494368",
        "meta_mean_motion": 14.05703412,
        "meta_eccentricity": 0.00064659,
        "meta_inclination": 50.0042,
        "meta_ra_of_asc_node": 125.8356,
        "meta_arg_of_pericenter": 272.9836,
        "meta_mean_anomaly": 87.0329,
        "meta_ephemeris_type": 0,
        "meta_classification_type": "U",
        "meta_norad_cat_id": 66918,
        "meta_element_set_no": 999,
        "meta_rev_at_epoch": 61,
        "meta_bstar": 6.96403e-06,
        "meta_mean_motion_dot": -1.41e-06,
        "meta_mean_motion_ddot": 0,
        "tle_line1": "1 66918U 25285D   25344.63909137 -.00000141  00000+0  69640-5 0  9994",
        "tle_line2": "2 66918  50.0042 125.8356 0006465 272.9836  87.0329 14.05703412   614"
      },
      "geometry": {
        "type": "Point",
        "coordinates": [
          -161.96917990291263,
          48.74110865078412
        ]
      }
    },
    {
      "type": "Feature",
      "properties": {
        "norad_id": 66919,
        "name": "HULIANWANG DIGUI 14E",
        "group": "last-30-days",
        "lat": 48.806599204391624,
        "lon": -161.5352794182562,
        "alt_km": 872.3861425353389,
        "timestamp": "2025-12-10T20:49:51.346335+00:00",
        "meta_object_name": "HULIANWANG DIGUI 14E",
        "meta_object_id": "2025-285E",
        "meta_epoch": "2025-12-10T15:20:12.801120",
        "meta_mean_motion": 14.05714535,
        "meta_eccentricity": 0.00078687,
        "meta_inclination": 50.0057,
        "meta_ra_of_asc_node": 125.8382,
        "meta_arg_of_pericenter": 284.4277,
        "meta_mean_anomaly": 75.5755,
        "meta_ephemeris_type": 0,
        "meta_classification_type": "U",
        "meta_norad_cat_id": 66919,
        "meta_element_set_no": 999,
        "meta_rev_at_epoch": 61,
        "meta_bstar": -3.76756e-06,
        "meta_mean_motion_dot": -1.58e-06,
        "meta_mean_motion_ddot": 0,
        "tle_line1": "1 66919U 25285E   25344.63903705 -.00000158  00000+0 -37676-5 0  9993",
        "tle_line2": "2 66919  50.0057 125.8382 0007868 284.4277  75.5755 14.05714535   618"
      },
      "geometry": {
        "type": "Point",
        "coordinates": [
          -161.5352794182562,
          48.806599204391624
        ]
      }
    },
    {
      "type": "Feature",
      "properties": {
        "norad_id": 66920,
        "name": "HULIANWANG DIGUI 14F",
        "group": "last-30-days",
        "lat": 49.22614482870829,
        "lon": -158.37510853002948,
        "alt_km": 870.672661667475,
        "timestamp": "2025-12-10T20:49:51.346347+00:00",
        "meta_object_name": "HULIANWANG DIGUI 14F",
        "meta_object_id": "2025-285F",
        "meta_epoch": "2025-12-10T17:02:00.436992",
        "meta_mean_motion": 14.05850313,
        "meta_eccentricity": 0.0005821,
        "meta_inclination": 50.01,
        "meta_ra_of_asc_node": 125.549,
        "meta_arg_of_pericenter": 281.7881,
        "meta_mean_anomaly": 78.2371,
        "meta_ephemeris_type": 0,
        "meta_classification_type": "U",
        "meta_norad_cat_id": 66920,
        "meta_element_set_no": 999,
        "meta_rev_at_epoch": 62,
        "meta_bstar": 0.0002287,
        "meta_mean_motion_dot": 2.24e-06,
        "meta_mean_motion_ddot": 0,
        "tle_line1": "1 66920U 25285F   25344.70972728  .00000224  00000+0  22870-3 0  9994",
        "tle_line2": "2 66920  50.0100 125.5490 0005821 281.7881  78.2371 14.05850313   624"
      },
      "geometry": {
        "type": "Point",
        "coordinates": [
          -158.37510853002948,
          49.22614482870829
        ]
      }
    },
    {
      "type": "Feature",
      "properties": {
        "norad_id": 66921,
        "name": "HULIANWANG DIGUI 14G",
        "group": "last-30-days",
        "lat": 49.324169644660934,
        "lon": -157.51849203407954,
        "alt_km": 871.1109331465168,
        "timestamp": "2025-12-10T20:49:51.346357+00:00",
        "meta_object_name": "HULIANWANG DIGUI 14G",
        "meta_object_id": "2025-285G",
        "meta_epoch": "2025-12-10T17:01:51.136032",
        "meta_mean_motion": 14.05883988,
        "meta_eccentricity": 0.0006973,
        "meta_inclination": 50.0115,
        "meta_ra_of_asc_node": 125.5503,
        "meta_arg_of_pericenter": 288.2922,
        "meta_mean_anomaly": 71.7224,
        "meta_ephemeris_type": 0,
        "meta_classification_type": "U",
        "meta_norad_cat_id": 66921,
        "meta_element_set_no": 999,
        "meta_rev_at_epoch": 62,
        "meta_bstar": 0.00024905,
        "meta_mean_motion_dot": 2.58e-06,
        "meta_mean_motion_ddot": 0,
        "tle_line1": "1 66921U 25285G   25344.70961963  .00000258  00000+0  24905-3 0  9992",
        "tle_line2": "2 66921  50.0115 125.5503 0006973 288.2922  71.7224 14.05883988   622"
      },
      "geometry": {
        "type": "Point",
        "coordinates": [
          -157.51849203407954,
          49.324169644660934
        ]
      }
    },
    {
      "type": "Feature",
      "properties": {
        "norad_id": 66922,
        "name": "HULIANWANG DIGUI 14H",
        "group": "last-30-days",
        "lat": 49.59147321993826,
        "lon": -154.7080422920456,
        "alt_km": 870.4713882455953,
        "timestamp": "2025-12-10T20:49:51.346367+00:00",
        "meta_object_name": "HULIANWANG DIGUI 14H",
        "meta_object_id": "2025-285H",
        "meta_epoch": "2025-12-10T15:18:59.874336",
        "meta_mean_motion": 14.05998149,
        "meta_eccentricity": 0.00069366,
        "meta_inclination": 50.0079,
        "meta_ra_of_asc_node": 125.8353,
        "meta_arg_of_pericenter": 294.2613,
        "meta_mean_anomaly": 65.7568,
        "meta_ephemeris_type": 0,
        "meta_classification_type": "U",
        "meta_norad_cat_id": 66922,
        "meta_element_set_no": 999,
        "meta_rev_at_epoch": 61,
        "meta_bstar": -1.870944e-06,
        "meta_mean_motion_dot": -1.55e-06,
        "meta_mean_motion_ddot": 0,
        "tle_line1": "1 66922U 25285H   25344.63819299 -.00000155  00000+0 -18709-5 0  9994",
        "tle_line2": "2 66922  50.0079 125.8353 0006936 294.2613  65.7568 14.05998149   610"
      },
      "geometry": {
        "type": "Point",
        "coordinates": [
          -154.7080422920456,
          49.59147321993826
        ]
      }
    },
    {
      "type": "Feature",
      "properties": {
        "norad_id": 66923,
        "name": "HULIANWANG DIGUI 14J",
        "group": "last-30-days",
        "lat": 49.70434677467875,
        "lon": -153.23927927610214,
        "alt_km": 869.495081959175,
        "timestamp": "2025-12-10T20:49:51.346377+00:00",
        "meta_object_name": "HULIANWANG DIGUI 14J",
        "meta_object_id": "2025-285J",
        "meta_epoch": "2025-12-10T15:18:44.344800",
        "meta_mean_motion": 14.06055236,
        "meta_eccentricity": 0.00053881,
        "meta_inclination": 50.0076,
        "meta_ra_of_asc_node": 125.8351,
        "meta_arg_of_pericenter": 289.1569,
        "meta_mean_anomaly": 70.8753,
        "meta_ephemeris_type": 0,
        "meta_classification_type": "U",
        "meta_norad_cat_id": 66923,
        "meta_element_set_no": 999,
        "meta_rev_at_epoch": 61,
        "meta_bstar": 0.00020757938,
        "meta_mean_motion_dot": 1.9e-06,
        "meta_mean_motion_ddot": 0,
        "tle_line1": "1 66923U 25285J   25344.63801325  .00000190  00000+0  20758-3 0  9998",
        "tle_line2": "2 66923  50.0076 125.8351 0005388 289.1569  70.8753 14.06055236   614"
      },
      "geometry": {
        "type": "Point",
        "coordinates": [
          -153.23927927610214,
          49.70434677467875
        ]
      }
    },
    {
      "type": "Feature",
      "properties": {
        "norad_id": 66924,
        "name": "CZ-8A R/B",
        "group": "last-30-days",
        "lat": 41.341747422375256,
        "lon": -103.48771554901057,
        "alt_km": 703.9403026615,
        "timestamp": "2025-12-10T20:49:51.346387+00:00",
        "meta_object_name": "CZ-8A R/B",
        "meta_object_id": "2025-285K",
        "meta_epoch": "2025-12-10T15:14:58.228224",
        "meta_mean_motion": 14.30500545,
        "meta_eccentricity": 0.01193137,
        "meta_inclination": 50.006,
        "meta_ra_of_asc_node": 125.1122,
        "meta_arg_of_pericenter": 99.3237,
        "meta_mean_anomaly": 262.1193,
        "meta_ephemeris_type": 0,
        "meta_classification_type": "U",
        "meta_norad_cat_id": 66924,
        "meta_element_set_no": 999,
        "meta_rev_at_epoch": 62,
        "meta_bstar": 9.8432288e-05,
        "meta_mean_motion_dot": 1.12e-06,
        "meta_mean_motion_ddot": 0,
        "tle_line1": "1 66924U 25285K   25344.63539616  .00000112  00000+0  98432-4 0  9999",
        "tle_line2": "2 66924  50.0060 125.1122 0119313  99.3237 262.1193 14.30500545   624"
      },
      "geometry": {
        "type": "Point",
        "coordinates": [
          -103.48771554901057,
          41.341747422375256
        ]
      }
    }
  ]
}